#dP2019 10 29  0  0  0.00000000      96 __u+U ITR00 FIT  IAC
## 2077 172800.00000000   900.00000000 58785 0.0000000000000
+  107   C06C07C08C09C10C11C12C13C14C16C18C19C20C21C22C23C24
+        C25C26C27C28C29C30C32C33C34C35C36C37E01E02E03E04E05
+        E07E08E09E11E12E13E14E15E18E19E21E24E25E26E27E30E31
+        E33E36G01G02G03G04G05G06G07G08G09G10G11G12G13G14G15
+        G16G17G18G19G20G21G22G23G24G25G26G27G28G29G30G31G32
+        R01R02R03R05R07R08R09R11R12R13R14R15R16R17R18R19R20
+        R21R22R23R24R26  0  0  0  0  0  0  0  0  0  0  0  0
++         8  9  9  8  8  8  8  8  8  8 13  8  8  8  8  8  8
++         8  8  7  7  7  7  8  8  8  8  8  8  5  4  4  5  4
++         4  4  5  4  4  4  4  4  5  5  5  4  5  5  5  4  5
++         5  4  3  3  3  4  3  3  4  4  3  4  4  3  4  3  4
++         3  3  4  3  4  3  3  3  4  3  3  3  3  4  4  3  3
++         6  5  5  5  5  6  6  6  5  6  5  5  6  5  5  6  6
++         5  5  5  6  8  0  0  0  0  0  0  0  0  0  0  0  0
%c M  cc GPS ccc cccc cccc cccc cccc ccccc ccccc ccccc ccccc
%c cc cc ccc ccc cccc cccc cccc cccc ccccc ccccc ccccc ccccc
%f  0.0000000  0.000000000  0.00000000000  0.000000000000000
%f  0.0000000  0.000000000  0.00000000000  0.000000000000000
%i    0    0    0    0      0      0      0      0         0
%i    0    0    0    0      0      0      0      0         0
/* INFORMATION & ANALYSIS CENTER (IAC)      ULTRA-RAPID DATA
/* S/V CLOCKS ARE ALIGNED TO GNSS TIME                      
/* G:C1WC2W R:C1PC2P E:C1XC5X C:C2IC6I J:C1CC2S             
/* PCV:IGS14_2076 OL/AL:FES2004  NONE     YN ORB:CoN CLK:CoN
*  2019 10 29  2 15  0.00000000
PC06 -19369.417433  37600.368566   2941.441854    341.322310
PC07  -9322.691385  26775.355407 -30889.864234   -226.111251
PC08 -22725.335118  20333.284150  29045.175922    -23.526867
PC09  -8992.601410  39066.129194 -13413.053940     75.119252
PC10   4956.769987  34373.930650 -23453.630170   -313.824305
PC11   3230.617494  17148.625089  21818.466467     29.717427
PC12 -19165.834976  20213.716679    347.697314    303.579039
PC13  -6010.174081  23625.815909  34426.767878     77.535402
PC14  10044.909563  25808.215541  -3165.314312    100.353783
PC16 -16386.912543  38941.774815   -808.657851   -902.867890
PC18   7293.092704  41522.013930   -680.063133   -259.047042
PC19 -14729.869462 -20649.354961  11665.986936    230.621309
PC20  -4257.427963 -27068.918487  -5351.343284   -225.575269
PC21  -9119.888020  17529.110855  19705.824202    220.589608
PC22 -16806.567057  -2165.794653  22172.087028   -286.783514
PC23  27118.210588   2428.741817   6131.646534   -892.859000
PC24   3154.682292  16875.989772 -21999.784844   -878.273784
PC25  22073.755336  13021.783119 -11062.585421   -395.697754
PC26 -16075.935651  10861.284393 -20045.945254    440.225157
PC27  19523.985641 -19928.319250   -235.540450    215.245420
PC28  21920.113223  -6293.242995  16097.472277    206.456125
PC29 -11917.541300 -10523.267191 -22937.450790    138.511448
PC30   5090.750930 -22131.818018 -16207.224418    215.480205
PC32   8986.990316 -17621.695093 -19681.453622   -883.095594
PC33  14805.115323  20613.394744 -11587.240088   -512.678123
PC34  -4870.073667  22051.341678  16403.142431   -190.676134
PC35 -21707.748028   6923.914702 -16125.093805   -494.372383
PC36 -21620.239431 -13623.855738  11251.340975   -928.832954
PC37  16856.259381 -10180.770007  19804.361045   -672.754602
PE01  18261.728566  -5003.821373  22760.236666   -720.365352
PE02 -18202.181390   5062.504273 -22775.664808     88.175893
PE03 -15803.799377  16174.569328  19085.415833   -226.985615
PE04   6098.782484 -28787.590292  -3220.472459   -394.775331
PE05 -16345.776045  -6038.233094  23923.767777   -436.015104
PE07   7332.942213  24585.013454 -14753.450568   -291.087061
PE08  -5755.883711  28863.603756   3072.417823   6270.976891
PE09  -7453.557178 -24504.469864  14851.950046   6270.389085
PE11  -9653.086080 -13517.517777 -24505.213479   5532.996565
PE12  12191.465471 -18992.044082 -19147.313134   6126.910834
PE13   9511.178470  13489.153292  24577.351869    394.739425
PE14 -22129.135337  13888.299686 -15439.025526   -774.061793
PE15 -11807.638897  18998.690588  19388.676207    889.800306
PE18  14226.950867 -23063.150403   1042.729876   -868.685508
PE19  16220.639415 -14126.778623 -20336.595608     -3.177357
PE21  25539.115184  11693.410631   9340.954059   -562.859719
PE24 -17726.134291 -21699.144083   9516.937726   5795.743508
PE25 -25534.306243 -11778.751879  -9234.080405   1632.976614
PE26  25434.591908    205.532176  15156.591420   3940.293154
PE27  17806.099250  21604.679311  -9603.377686    357.196867
PE30   -480.154481  18844.745596 -22823.036678   4429.288697
PE31    368.313141 -18807.744051  22870.073173   -470.109516
PE33  26260.662453 -13372.320763  -2803.817639   -471.570681
PE36 -25295.077324    -58.127959 -15361.654423    643.782411
PG01  -8564.226467 -13750.828393 -21311.142535   -178.737420
PG02 -14504.437334  14555.611122  17380.050549   -335.577426
PG03 -13062.820047 -22948.335393  -3339.641084    -28.684324
PG04 -16001.526887  -1242.255984  21164.110078     -3.722907
PG05  -2534.936451  18755.951577  18416.591474     -2.818800
PG06 -25053.508562   6346.000188   6227.941717   -106.001637
PG07 -22971.683006  -7007.158111  12133.543689   -137.065842
PG08   3915.414562 -24352.902172  -9524.112179    -11.511705
PG09 -12032.811598 -10172.258508  21328.868850    -69.113597
PG10  18434.225376   3597.267716 -18803.794297   -112.896757
PG11  -5232.644583 -15947.795736 -21128.664157   -464.300982
PG12   8171.955546  24145.484554  -7966.432794    189.230641
PG13 -12637.044942  23188.069341  -2570.452798    -36.120601
PG14  17642.285641 -16894.167158  -9876.781915    -53.558673
PG15   -490.728956  24383.432935 -10321.905752   -276.562544
PG16   5854.226731 -16394.206585  19730.104759    -87.786535
PG17 -17704.089919   8156.973248 -17581.756025    152.828647
PG18    929.095170 -15715.235845 -21890.268556     96.368658
PG19 -18634.843565  13889.890001 -13170.651360   -247.302847
PG20  21404.618356  11379.223268 -11172.243825    527.329601
PG21  24616.860435   3502.277741   9831.456080    -94.839347
PG22  -8688.209997 -22845.101577 -10296.662662   -767.668821
PG23  -5309.042080 -19340.393210  17564.963019   -158.752273
PG24   6521.771335  14830.618133 -21256.004328     -4.136111
PG25  17671.333676  19247.749870   5266.472560    -16.357355
PG26  12924.045120  -8512.030428  21573.665475     72.038428
PG27  12277.422337 -23284.567681   1786.826398   -102.520482
PG28 -17212.251581  -4415.817457 -19096.109660    757.297105
PG29   9532.711361  12199.723974  21545.674320     58.790445
PG30 -26636.802919    208.375454   1313.009550    -71.788438
PG31  24509.887002  -7086.007928   8169.623384      0.512161
PG32  17728.809750  -8716.615005 -17630.167099    107.077665
PR01  -2890.378833  22605.665462  11438.643742     51.870473
PR02   6571.888845  22916.564625  -9118.623816    395.121306
PR03  11087.667121   8481.460138 -21327.976773      3.902150
PR05   1913.471291 -23730.723409  -9124.732591     38.375681
PR07 -11136.689650  -7805.545747  21598.542576    -28.663531
PR08  -9160.146294  10639.492885  21344.367833     14.780749
PR09 -17977.042856 -14150.298922  11372.406566     98.193363
PR11 -17227.653166   2169.372882 -18684.398656     21.779761
PR12  -1459.264015  11174.502234 -22851.199302     74.375488
PR13  16120.096367  14164.080107 -13797.672962    -30.257902
PR14  23654.559510   8956.968976   3264.610873     44.483467
PR15  17742.943991  -1488.971465  18293.257459    104.543230
PR16   1168.320255 -11428.676250  22750.028765      1.511565
PR17  17038.645718  -1527.155126  18950.357224    271.979285
PR18  21580.862810 -12704.259688   4741.072269     12.559343
PR19  15170.731627 -16709.224496 -11899.871400    -61.207823
PR20  -2083.085634 -10951.239226 -22931.809150   -394.647045
PR21 -17398.531597   2098.471786 -18517.641877    -81.725192
PR22 -21288.145304  14061.005995  -1677.271949   -182.244032
PR23 -10231.327620  16374.351751  16657.808840    263.285171
PR24   4284.045559   9707.305516  23172.850070   -186.200627
PR26   1124.440988 -12886.461451 -21979.397363      3.879381
EOF
